NORAD_CAT_ID,OBJECT_NAME,OBJECT_TYPE,EPOCH,MEAN_MOTION,ECCENTRICITY,INCLINATION,RA_OF_ASC_NODE,ARG_OF_PERICENTER,MEAN_ANOMALY,BSTAR,MEAN_MOTION_DOT,MEAN_MOTION_DDOT,TLE_LINE0,TLE_LINE1,TLE_LINE2,SEMIMAJOR_AXIS,PERIOD,APOGEE,PERIGEE,DECAYED
52091.0,STARLINK-3713,PAYLOAD,2022-11-13 05:30:50,15.08846301,0.0002002,53.2167,132.0647,43.6124,316.5026,0.00029911,4.476e-05,0.0,0 STARLINK-3713,1 52091U 22029D   22317.22974746  .00004476  00000-0  29911-3 0  9994,2 52091  53.2167 132.0647 0002002  43.6124 316.5026 15.08846301 37616,6917.861,95.437,541.111,538.341,0.0
52091.0,STARLINK-3713,PAYLOAD,2022-11-13 18:13:54,15.08857115,0.0002054,53.2167,129.6858,44.1383,315.9773,0.00037719,5.723e-05,0.0,0 STARLINK-3713,1 52091U 22029D   22317.75966182  .00005723  00000-0  37719-3 0  9998,2 52091  53.2167 129.6858 0002054  44.1383 315.9773 15.08857115 37697,6917.828,95.436,541.114,538.2719999999998,0.0
52091.0,STARLINK-3713,PAYLOAD,2022-11-13 23:00:03,15.08859828,0.0002072,53.2167,128.7938,44.1631,315.9526,0.00037944,5.759e-05,0.0,0 STARLINK-3713,1 52091U 22029D   22317.95837905  .00005759  00000-0  37944-3 0  9999,2 52091  53.2167 128.7938 0002072  44.1631 315.9526 15.08859828 37725,6917.82,95.436,541.118,538.251,0.0
52091.0,STARLINK-3713,PAYLOAD,2022-11-14 18:04:41,15.08852149,0.0002088,53.217,125.2254,45.288,314.8281,6.759600000000001e-05,7.88e-06,0.0,0 STARLINK-3713,1 52091U 22029D   22318.75325408  .00000788  00000-0  67596-4 0  9992,2 52091  53.2170 125.2254 0002088  45.2880 314.8281 15.08852149 37845,6917.843000000003,95.437,541.153,538.264,0.0
52091.0,STARLINK-3713,PAYLOAD,2022-11-15 13:09:18,15.08844669,0.0002112,53.2172,121.6575,46.4131,313.7036,-8.631700000000001e-05,-1.662e-05,0.0,0 STARLINK-3713,1 52091U 22029D   22319.54813187 -.00001662  00000-0 -86317-4 0  9992,2 52091  53.2172 121.6575 0002112  46.4131 313.7036 15.08844669 37960,6917.866,95.437,541.192,538.27,0.0
52091.0,STARLINK-3713,PAYLOAD,2022-11-15 17:55:28,15.08842599,0.0002048,53.2179,120.7653,45.2671,314.8488,-7.7995e-05,-1.529e-05,0.0,0 STARLINK-3713,1 52091U 22029D   22319.74685711 -.00001529  00000-0 -77995-4 0  9998,2 52091  53.2179 120.7653 0002048  45.2671 314.8488 15.08842599 37994,6917.871999999999,95.437,541.154,538.321,0.0
52091.0,STARLINK-3713,PAYLOAD,2022-11-15 19:30:51,15.08842329,0.0002062,53.2179,120.4679,43.7256,316.39,-9.0844e-05,-1.734e-05,0.0,0 STARLINK-3713,1 52091U 22029D   22319.81309693 -.00001734  00000-0 -90844-4 0  9994,2 52091  53.2179 120.4679 0002062  43.7256 316.3900 15.08842329 38007,6917.873000000001,95.437,541.165,538.312,0.0
52091.0,STARLINK-3713,PAYLOAD,2022-11-16 13:00:05,15.08843499,0.0001998,53.2178,117.1967,44.2353,315.8799,2.8818e-05,1.71e-06,0.0,0 STARLINK-3713,1 52091U 22029D   22320.54172957  .00000171  00000-0  28818-4 0  9991,2 52091  53.2178 117.1967 0001998  44.2353 315.8799 15.08843499 38111,6917.87,95.437,541.117,538.3530000000002,0.0
52091.0,STARLINK-3713,PAYLOAD,2022-11-16 17:46:14,15.08845402,0.0002018,53.2179,116.3047,43.7018,316.4134,3.804e-05,3.17e-06,0.0,0 STARLINK-3713,1 52091U 22029D   22320.74044757  .00000317  00000-0  38040-4 0  9999,2 52091  53.2179 116.3047 0002018  43.7018 316.4134 15.08845402 38147,6917.864000000001,95.437,541.125,538.3330000000002,0.0
52091.0,STARLINK-3713,PAYLOAD,2022-11-17 03:18:33,15.08842869,0.0002041,53.218,114.5207,44.0774,316.038,2.3205e-05,8.1e-07,0.0,0 STARLINK-3713,1 52091U 22029D   22321.13788887  .00000081  00000-0  23205-4 0  9997,2 52091  53.2180 114.5207 0002041  44.0774 316.0380 15.08842869 38206,6917.871999999999,95.437,541.149,538.325,0.0
52091.0,STARLINK-3713,PAYLOAD,2022-11-17 14:26:16,15.08832405,0.0002042,53.2179,112.4388,42.8705,317.2446,6.0761e-06,-1.92e-06,0.0,0 STARLINK-3713,1 52091U 22029D   22321.60157569 -.00000192  00000-0  60761-5 0  9999,2 52091  53.2179 112.4388 0002042  42.8705 317.2446 15.08832405 38270,6917.904,95.438,541.181,538.356,0.0
52091.0,STARLINK-3713,PAYLOAD,2022-11-18 03:09:20,15.08838506,0.0002093,53.218,110.0599,42.8125,317.303,4.9641e-05,5.02e-06,0.0,0 STARLINK-3713,1 52091U 22029D   22322.13149178  .00000502  00000-0  49641-4 0  9992,2 52091  53.2180 110.0599 0002093  42.8125 317.3030 15.08838506 38359,6917.885,95.438,541.198,538.302,0.0
52091.0,STARLINK-3713,PAYLOAD,2022-11-18 11:06:16,15.08843759,0.0002097,53.2181,108.573,43.0854,317.0302,6.8336e-05,8e-06,0.0,0 STARLINK-3713,1 52091U 22029D   22322.46268736  .00000800  00000-0  68336-4 0  9993,2 52091  53.2181 108.5730 0002097  43.0854 317.0302 15.08843759 38406,6917.869000000002,95.437,541.185,538.283,0.0
52091.0,STARLINK-3713,PAYLOAD,2022-11-18 14:17:02,15.08846675,0.000211,53.2182,107.9784,43.6724,316.4435,7.6098e-05,9.23e-06,0.0,0 STARLINK-3713,1 52091U 22029D   22322.59516513  .00000923  00000-0  76098-4 0  9996,2 52091  53.2182 107.9784 0002110  43.6724 316.4435 15.08846675 38429,6917.86,95.437,541.185,538.265,0.0
52091.0,STARLINK-3713,PAYLOAD,2022-11-19 09:21:40,15.0883353,0.0002058,53.2192,104.409,44.3497,315.766,3.7789e-05,3.13e-06,0.0,0 STARLINK-3713,1 52091U 22029D   22323.39005519  .00000313  00000-0  37789-4 0  9991,2 52091  53.2192 104.4090 0002058  44.3497 315.7660 15.08833530 38549,6917.9,95.438,541.189,538.341,0.0
52091.0,STARLINK-3713,PAYLOAD,2022-11-19 15:43:12,15.08839217,0.0001996,53.2182,103.2205,42.3447,317.7699,8.458e-05,1.058e-05,0.0,0 STARLINK-3713,1 52091U 22029D   22323.65500999  .00001058  00000-0  84580-4 0  9990,2 52091  53.2182 103.2205 0001996  42.3447 317.7699 15.08839217 38582,6917.8830000000025,95.438,541.129,538.367,0.0
52091.0,STARLINK-3713,PAYLOAD,2022-11-19 18:53:58,15.08845009,0.000221,53.2192,102.6265,45.4294,314.6878,8.581299999999999e-05,1.078e-05,0.0,0 STARLINK-3713,1 52091U 22029D   22323.78748621  .00001078  00000-0  85813-4 0  9992,2 52091  53.2192 102.6265 0002210  45.4294 314.6878 15.08845009 38600,6917.865,95.437,541.259,538.201,0.0
52091.0,STARLINK-3713,PAYLOAD,2022-11-20 02:50:54,15.0884856,0.0002227,53.2186,101.1398,43.7303,316.3865,9.5959e-05,1.24e-05,0.0,0 STARLINK-3713,1 52091U 22029D   22324.11868228  .00001240  00000-0  95959-4 0  9999,2 52091  53.2186 101.1398 0002227  43.7303 316.3865 15.08848560 38659,6917.854,95.437,541.26,538.179,0.0
52091.0,STARLINK-3713,PAYLOAD,2022-11-20 12:23:13,15.08844791,0.0002268,53.2196,99.3567,45.5326,314.5851,9.5378e-06,-1.37e-06,0.0,0 STARLINK-3713,1 52091U 22029D   22324.51612698 -.00000137  00000-0  95378-5 0  9992,2 52091  53.2196  99.3567 0002268  45.5326 314.5851 15.08844791 38710,6917.866,95.437,541.3,538.1619999999998,0.0
52091.0,STARLINK-3713,PAYLOAD,2022-11-20 15:33:59,15.08842359,0.0002156,53.2192,98.7609,47.257,312.8603,-5.1237e-07,-2.96e-06,0.0,0 STARLINK-3713,1 52091U 22029D   22324.64860816 -.00000296  00000-0 -51237-6 0  9997,2 52091  53.2192  98.7609 0002156  47.2570 312.8603 15.08842359 38738,6917.873000000001,95.437,541.23,538.247,0.0
52091.0,STARLINK-3713,PAYLOAD,2022-11-20 18:44:45,15.08844246,0.0002131,53.2192,98.1662,45.0544,315.0621,-1.1058e-05,-4.64e-06,0.0,0 STARLINK-3713,1 52091U 22029D   22324.78108658 -.00000464  00000-0 -11058-4 0  9993,2 52091  53.2192  98.1662 0002131  45.0544 315.0621 15.08844246 38755,6917.8669999999975,95.437,541.207,538.258,0.0
52091.0,STARLINK-3713,PAYLOAD,2022-11-21 12:14:00,15.08838043,0.0002231,53.2178,94.8948,46.3544,313.7633,-1.2487e-05,-4.87e-06,0.0,0 STARLINK-3713,1 52091U 22029D   22325.50973159 -.00000487  00000-0 -12487-4 0  9992,2 52091  53.2178  94.8948 0002231  46.3544 313.7633 15.08838043 38862,6917.886,95.438,541.295,538.2080000000002,0.0
52091.0,STARLINK-3713,PAYLOAD,2022-11-21 15:24:46,15.08845396,0.000268,53.2198,94.3002,32.542,327.5737,2.6933e-05,1.4e-06,0.0,0 STARLINK-3713,1 52091U 22029D   22325.64220725  .00000140  00000-0  26933-4 0  9996,2 52091  53.2198  94.3002 0002680  32.5420 327.5737 15.08845396 38887,6917.864000000001,95.437,541.5830000000002,537.875,0.0
52091.0,STARLINK-3713,PAYLOAD,2022-11-22 12:04:46,15.08847502,0.0001875,53.2183,90.4317,56.5115,303.6057,6.6771e-05,7.75e-06,0.0,0 STARLINK-3713,1 52091U 22029D   22326.50331887  .00000775  00000-0  66771-4 0  9992,2 52091  53.2183  90.4317 0001875  56.5115 303.6057 15.08847502 39016,6917.857,95.437,541.02,538.425,0.0
52091.0,STARLINK-3713,PAYLOAD,2022-11-22 15:15:33,15.08842619,0.0002822,53.2186,89.8397,22.2785,337.833,5.8037e-05,6.35e-06,0.0,0 STARLINK-3713,1 52091U 22029D   22326.63580421  .00000635  00000-0  58037-4 0  9997,2 52091  53.2186  89.8397 0002822  22.2785 337.8330 15.08842619 39034,6917.871999999999,95.437,541.69,537.785,0.0
52091.0,STARLINK-3713,PAYLOAD,2022-11-22 20:01:42,15.08840445,0.0002461,53.2201,88.9502,28.4138,331.6988,5.4431e-05,5.78e-06,0.0,0 STARLINK-3713,1 52091U 22029D   22326.83452465  .00000578  00000-0  54431-4 0  9995,2 52091  53.2201  88.9502 0002461  28.4138 331.6988 15.08840445 39068,6917.879,95.438,541.447,538.0419999999998,0.0
52091.0,STARLINK-3713,PAYLOAD,2022-11-23 07:09:25,15.08831263,0.0002583999999999,53.2214,86.8707,23.44400000000001,336.667,1.5758e-05,-3.8e-07,0.0,0 STARLINK-3713,1 52091U 22029D   22327.29821318 -.00000038  00000-0  15758-4 0  9994,2 52091  53.2214  86.8707 0002584  23.4440 336.6670 15.08831263 39132,6917.906999999997,95.438,541.56,537.985,0.0
52091.0,STARLINK-3713,PAYLOAD,2022-11-23 15:06:21,15.08825639,0.0002123,53.222,85.3815,38.3094,321.8049,3.6465e-06,-2.3e-06,0.0,0 STARLINK-3713,1 52091U 22029D   22327.62941832 -.00000230  00000-0  36465-5 0  9998,2 52091  53.2220  85.3815 0002123  38.3094 321.8049 15.08825639 39183,6917.924,95.438,541.258,538.321,0.0
52091.0,STARLINK-3713,PAYLOAD,2022-11-24 08:35:35,15.08844903,0.0002258,53.221,82.1083,31.6121,328.5007,-9.7208e-05,-1.835e-05,0.0,0 STARLINK-3713,1 52091U 22029D   22328.35805190 -.00001835  00000-0 -97208-4 0  9999,2 52091  53.2210  82.1083 0002258  31.6121 328.5007 15.08844903 39295,6917.865,95.437,541.2919999999998,538.168,0.0
